[
    {
        "Altitude(m)": 569633.4847261107,
        "Argument of Periapsis(deg)": -0.037671934638287344,
        "Eccentricity": 0.0,
        "Inclination(deg)": 97.0,
        "Latitude(deg)": -15.194594878441462,
        "Longitude(deg)": 17.972067004632404,
        "Mean Anomaly(deg)": -15.062561218020845,
        "RAAN(deg)": 120.00991175603085,
        "Satellite Name": "Starlink Shell 3 1862",
        "Satellite Number": 1862,
        "Semi-Major Axis(m)": 6938478.169268562,
        "Time(s)": 950
    },
    {
        "Altitude(m)": 569457.4191523051,
        "Argument of Periapsis(deg)": -0.03806848131869037,
        "Eccentricity": 0.0,
        "Inclination(deg)": 97.0,
        "Latitude(deg)": -14.57139898822032,
        "Longitude(deg)": 17.848869546847975,
        "Mean Anomaly(deg)": -14.437085020315736,
        "RAAN(deg)": 120.01001609030484,
        "Satellite Name": "Starlink Shell 3 1862",
        "Satellite Number": 1862,
        "Semi-Major Axis(m)": 6938478.169268562,
        "Time(s)": 960
    },
    {
        "Altitude(m)": 569284.8667139288,
        "Argument of Periapsis(deg)": -0.0384650279990934,
        "Eccentricity": 0.0,
        "Inclination(deg)": 97.0,
        "Latitude(deg)": -13.948118758565963,
        "Longitude(deg)": 17.72612453385093,
        "Mean Anomaly(deg)": -13.811608822610728,
        "RAAN(deg)": 120.01012042457887,
        "Satellite Name": "Starlink Shell 3 1862",
        "Satellite Number": 1862,
        "Semi-Major Axis(m)": 6938478.169268562,
        "Time(s)": 970
    },
    {
        "Altitude(m)": 569115.8823761769,
        "Argument of Periapsis(deg)": -0.03886157467949641,
        "Eccentricity": 0.0,
        "Inclination(deg)": 97.0,
        "Latitude(deg)": -13.324757183906199,
        "Longitude(deg)": 17.60380923672113,
        "Mean Anomaly(deg)": -13.186132624905719,
        "RAAN(deg)": 120.01022475885289,
        "Satellite Name": "Starlink Shell 3 1862",
        "Satellite Number": 1862,
        "Semi-Major Axis(m)": 6938478.169268562,
        "Time(s)": 980
    },
    {
        "Altitude(m)": 568950.5193189156,
        "Argument of Periapsis(deg)": -0.03925812135989944,
        "Eccentricity": 0.0,
        "Inclination(deg)": 97.0,
        "Latitude(deg)": -12.701317254201284,
        "Longitude(deg)": 17.481901865488638,
        "Mean Anomaly(deg)": -12.560656427200724,
        "RAAN(deg)": 120.01032909312688,
        "Satellite Name": "Starlink Shell 3 1862",
        "Satellite Number": 1862,
        "Semi-Major Axis(m)": 6938478.169268562,
        "Time(s)": 990
    }
]